[{"OBJECT_NAME":"SHIJIAN-6 04A (SJ-6 04A)","OBJECT_ID":"2010-051A","EPOCH":"2026-03-09T23:23:42.914400","MEAN_MOTION":15.16645177,"ECCENTRICITY":0.00182577,"INCLINATION":97.8386,"RA_OF_ASC_NODE":88.8025,"ARG_OF_PERICENTER":202.8454,"MEAN_ANOMALY":157.1968,"EPHEMERIS_TYPE":0,"CLASSIFICATION_TYPE":"U","NORAD_CAT_ID":37179,"ELEMENT_SET_NO":999,"REV_AT_EPOCH":84190,"BSTAR":0.00032742446,"MEAN_MOTION_DOT":6.359e-5,"MEAN_MOTION_DDOT":0},{"OBJECT_NAME":"STARLINK-6079","OBJECT_ID":"2023-046AD","EPOCH":"2026-03-09T22:00:01.999584","MEAN_MOTION":15.12009533,"ECCENTRICITY":0.00021275,"INCLINATION":42.9999,"RA_OF_ASC_NODE":144.8653,"ARG_OF_PERICENTER":279.9267,"MEAN_ANOMALY":119.034,"EPHEMERIS_TYPE":0,"CLASSIFICATION_TYPE":"U","NORAD_CAT_ID":56120,"ELEMENT_SET_NO":999,"REV_AT_EPOCH":572,"BSTAR":0.00036558396,"MEAN_MOTION_DOT":6.172e-5,"MEAN_MOTION_DDOT":0}]
